$$SOE
2461302.500000000, A.D. 2026-Sep-19 00:00:00.0000, -1.730017349029977E+07, 4.263107715793757E+08, -5.145920202618352E+07,
2461309.500000000, A.D. 2026-Sep-26 00:00:00.0000, -2.756763954950387E+07, 4.272339156903110E+08, -5.059430430629894E+07,
2461316.500000000, A.D. 2026-Oct-03 00:00:00.0000, -3.781853817859915E+07, 4.278982105464362E+08, -4.969873236039422E+07,
2461323.500000000, A.D. 2026-Oct-10 00:00:00.0000, -4.804687340671446E+07, 4.283056359987592E+08, -4.877330529901358E+07,
2461330.500000000, A.D. 2026-Oct-17 00:00:00.0000, -5.824676969558135E+07, 4.284582701222878E+08, -4.781884299491853E+07,
2461337.500000000, A.D. 2026-Oct-24 00:00:00.0000, -6.841247074695623E+07, 4.283582841710212E+08, -4.683616558056828E+07,
2461344.500000000, A.D. 2026-Oct-31 00:00:00.0000, -7.853833810917772E+07, 4.280079376057443E+08, -4.582609300781271E+07,
2461351.500000000, A.D. 2026-Nov-07 00:00:00.0000, -8.861884925828315E+07, 4.274095732636180E+08, -4.478944469273588E+07,
2461358.500000000, A.D. 2026-Nov-14 00:00:00.0000, -9.864859496666384E+07, 4.265656135524389E+08, -4.372703918967552E+07,
2461365.500000000, A.D. 2026-Nov-21 00:00:00.0000, -1.086222777829373E+08, 4.254785583478959E+08, -4.263969367102693E+07,
2461372.500000000, A.D. 2026-Nov-28 00:00:00.0000, -1.185347126298808E+08, 4.241509815792939E+08, -4.152822336491801E+07,
2461379.500000000, A.D. 2026-Dec-05 00:00:00.0000, -1.283808259110646E+08, 4.225855258381105E+08, -4.039344133341081E+07,
2461386.500000000, A.D. 2026-Dec-12 00:00:00.0000, -1.381556529718957E+08, 4.207848981150427E+08, -3.923615835030101E+07,
2461393.500000000, A.D. 2026-Dec-19 00:00:00.0000, -1.478543358095022E+08, 4.187518666657409E+08, -3.805718270300727E+07,
2461400.500000000, A.D. 2026-Dec-26 00:00:00.0000, -1.574721211813150E+08, 4.164892581280164E+08, -3.685731997392626E+07,
2461407.500000000, A.D. 2027-Jan-02 00:00:00.0000, -1.670043588456059E+08, 4.139999546912664E+08, -3.563737284004726E+07,
2461414.500000000, A.D. 2027-Jan-09 00:00:00.0000, -1.764464998262896E+08, 4.112868913320256E+08, -3.439814089844671E+07,
2461421.500000000, A.D. 2027-Jan-16 00:00:00.0000, -1.857940946749276E+08, 4.083530531193341E+08, -3.314042051908326E+07,
2461428.500000000, A.D. 2027-Jan-23 00:00:00.0000, -1.950427916910505E+08, 4.052014725449873E+08, -3.186500473128553E+07,
2461435.500000000, A.D. 2027-Jan-30 00:00:00.0000, -2.041883349195803E+08, 4.018352268247389E+08, -3.057268316390111E+07,
2461442.500000000, A.D. 2027-Feb-06 00:00:00.0000, -2.132265615072310E+08, 3.982574355038607E+08, -2.926424204912968E+07,
2461449.500000000, A.D. 2027-Feb-13 00:00:00.0000, -2.221533988853240E+08, 3.944712595809295E+08, -2.794046414725849E+07,
2461456.500000000, A.D. 2027-Feb-20 00:00:00.0000, -2.309648641489431E+08, 3.904799013548229E+08, -2.660212843959916E+07,
2461463.500000000, A.D. 2027-Feb-27 00:00:00.0000, -2.396570642393202E+08, 3.862866017754859E+08, -2.525000997923315E+07,
2461470.500000000, A.D. 2027-Mar-06 00:00:00.0000, -2.482261939152727E+08, 3.818946372131533E+08, -2.388488001789233E+07,
2461477.500000000, A.D. 2027-Mar-13 00:00:00.0000, -2.566685331193723E+08, 3.773073176913896E+08, -2.250750609424235E+07,
2461484.500000000, A.D. 2027-Mar-20 00:00:00.0000, -2.649804448709397E+08, 3.725279857460168E+08, -2.111865204771551E+07,
2461491.500000000, A.D. 2027-Mar-27 00:00:00.0000, -2.731583734854101E+08, 3.675600153558849E+08, -1.971907802039360E+07,
2461498.500000000, A.D. 2027-Apr-03 00:00:00.0000, -2.811988429190652E+08, 3.624068108923334E+08, -1.830954046855344E+07,
2461505.500000000, A.D. 2027-Apr-10 00:00:00.0000, -2.890984551798931E+08, 3.570718061053677E+08, -1.689079218679595E+07,
2461512.500000000, A.D. 2027-Apr-17 00:00:00.0000, -2.968538887843761E+08, 3.515584631275121E+08, -1.546358234719631E+07,
2461519.500000000, A.D. 2027-Apr-24 00:00:00.0000, -3.044618971826760E+08, 3.458702714286537E+08, -1.402865656508833E+07,
2461526.500000000, A.D. 2027-May-01 00:00:00.0000, -3.119193068540771E+08, 3.400107467452334E+08, -1.258675701596861E+07,
2461533.500000000, A.D. 2027-May-08 00:00:00.0000, -3.192230147668771E+08, 3.339834307277714E+08, -1.113862256985818E+07,
2461540.500000000, A.D. 2027-May-15 00:00:00.0000, -3.263699867019088E+08, 3.277918922565095E+08, -9.684988727378950E+06,
2461547.500000000, A.D. 2027-May-22 00:00:00.0000, -3.333572580053182E+08, 3.214397278314553E+08, -8.226587425487936E+06,
2461554.500000000, A.D. 2027-May-29 00:00:00.0000, -3.401819334136482E+08, 3.149305595647892E+08, -6.764147139791742E+06,
2461561.500000000, A.D. 2027-Jun-05 00:00:00.0000, -3.468411850668560E+08, 3.082680339015101E+08, -5.298393107727259E+06,
2461568.500000000, A.D. 2027-Jun-12 00:00:00.0000, -3.533322507197971E+08, 3.014558214970422E+08, -3.830047452788800E+06,
2461575.500000000, A.D. 2027-Jun-19 00:00:00.0000, -3.596524324846858E+08, 2.944976173149809E+08, -2.359829255380929E+06,
2461582.500000000, A.D. 2027-Jun-26 00:00:00.0000, -3.657990958255752E+08, 2.873971406808496E+08, -8.884546165917218E+05,
2461589.500000000, A.D. 2027-Jul-03 00:00:00.0000, -3.717696686734623E+08, 2.801581352970295E+08, 5.833632743884176E+05,
2461596.500000000, A.D. 2027-Jul-10 00:00:00.0000, -3.775616406262053E+08, 2.727843692246804E+08, 2.054914067211673E+06,
2461603.500000000, A.D. 2027-Jul-17 00:00:00.0000, -3.831725621980585E+08, 2.652796347911902E+08, 3.525490165827230E+06,
2461610.500000000, A.D. 2027-Jul-24 00:00:00.0000, -3.886000439635251E+08, 2.576477483580216E+08, 4.994386613594979E+06,
2461617.500000000, A.D. 2027-Jul-31 00:00:00.0000, -3.938417551850347E+08, 2.498925501823337E+08, 6.460900930176765E+06,
2461624.500000000, A.D. 2027-Aug-07 00:00:00.0000, -3.988954221260104E+08, 2.420179055220265E+08, 7.924333013274699E+06,
2461631.500000000, A.D. 2027-Aug-14 00:00:00.0000, -4.037588283517106E+08, 2.340277067294004E+08, 9.383985295955166E+06,
2461638.500000000, A.D. 2027-Aug-21 00:00:00.0000, -4.084298163997378E+08, 2.259258729687532E+08, 1.083916282826579E+07,
2461645.500000000, A.D. 2027-Aug-28 00:00:00.0000, -4.129062873860128E+08, 2.177163487583974E+08, 1.228917306725277E+07,
2461652.500000000, A.D. 2027-Sep-04 00:00:00.0000, -4.171861997261409E+08, 2.094031038338279E+08, 1.373332568841562E+07,
2461659.500000000, A.D. 2027-Sep-11 00:00:00.0000, -4.212675683703799E+08, 2.009901336669474E+08, 1.517093249239455E+07,
2461666.500000000, A.D. 2027-Sep-18 00:00:00.0000, -4.251484644223680E+08, 1.924814599897553E+08, 1.660130734141457E+07,
2461673.500000000, A.D. 2027-Sep-25 00:00:00.0000, -4.288270149152892E+08, 1.838811312443306E+08, 1.802376609810880E+07,
2461680.500000000, A.D. 2027-Oct-02 00:00:00.0000, -4.323014026722029E+08, 1.751932229864978E+08, 1.943762656208601E+07,
2461687.500000000, A.D. 2027-Oct-09 00:00:00.0000, -4.355698662290502E+08, 1.664218382384251E+08, 2.084220840183762E+07,
2461694.500000000, A.D. 2027-Oct-16 00:00:00.0000, -4.386306997575549E+08, 1.575711077346126E+08, 2.223683307175718E+07,
2461701.500000000, A.D. 2027-Oct-23 00:00:00.0000, -4.414822527282450E+08, 1.486451900544328E+08, 2.362082369004984E+07,
2461708.500000000, A.D. 2027-Oct-30 00:00:00.0000, -4.441229289389020E+08, 1.396482722499186E+08, 2.499350489314725E+07,
2461715.500000000, A.D. 2027-Nov-06 00:00:00.0000, -4.465511860724059E+08, 1.305845720948083E+08, 2.635420286564212E+07,
2461722.500000000, A.D. 2027-Nov-13 00:00:00.0000, -4.487655377715343E+08, 1.214583398768363E+08, 2.770224555833296E+07,
2461729.500000000, A.D. 2027-Nov-20 00:00:00.0000, -4.507645553306894E+08, 1.122738575469814E+08, 2.903696264994656E+07,
2461736.500000000, A.D. 2027-Nov-27 00:00:00.0000, -4.525468673859208E+08, 1.030354381888136E+08, 3.035768534681951E+07,
2461743.500000000, A.D. 2027-Dec-04 00:00:00.0000, -4.541111596267251E+08, 9.374742671852607E+07, 3.166374628106349E+07,
2461750.500000000, A.D. 2027-Dec-11 00:00:00.0000, -4.554561750826569E+08, 8.441420084913094E+07, 3.295447947925549E+07,
2461757.500000000, A.D. 2027-Dec-18 00:00:00.0000, -4.565807147119975E+08, 7.504017197828037E+07, 3.422922034920096E+07,
2461764.500000000, A.D. 2027-Dec-25 00:00:00.0000, -4.574836381418144E+08, 6.562978599592121E+07, 3.548730567117291E+07,
2461771.500000000, A.D. 2028-Jan-01 00:00:00.0000, -4.581638645191527E+08, 5.618752402426396E+07, 3.672807359155750E+07,
$$EOE